EARTHCARE               
1 59908U 24101A   24271.16459132  .00024227  00000+0  33976-3 0  9993
2 59908  96.9901  36.6655 0002520 101.0467 259.1072 15.56743198 18842
